NOAA 1 [-]              
1 04793U 70106A   19042.83610192 -.00000048  00000-0 -16950-4 0  9992
2 04793 101.7206 112.9731 0032104 171.0229 313.8787 12.53988630204466
NOAA 2 (ITOS-D) [-]     
1 06235U 72082A   19042.92039295 -.00000024  00000-0  13273-3 0  9996
2 06235 101.7779  10.3804 0003749 260.7799 162.6541 12.53111141118969
NOAA 3 [-]              
1 06920U 73086A   19042.92674865 -.00000039  00000-0  41123-4 0  9992
2 06920 102.0339  13.3701 0006704  29.9998  32.1080 12.40345045 49347
NOAA 4 [-]              
1 07529U 74089A   19042.91207314 -.00000024  00000-0  12872-3 0  9994
2 07529 101.7354  12.0034 0008648 292.2453 127.9818 12.53125764 23534
NOAA 5 [-]              
1 09057U 76077A   19042.88908380 -.00000047  00000-0 -20675-4 0  9995
2 09057 101.9149  17.1990 0009645 242.5844 172.1327 12.37756466922595
TIROS N [P]             
1 11060U 78096A   19042.61045546 -.00000006  00000-0  18376-4 0  9991
2 11060  98.8097 101.0405 0011349  56.7302 303.4959 14.18223664298417
NOAA 6 [P]              
1 11416U 79057A   19042.93770752  .00000017  00000-0  22080-4 0  9991
2 11416  98.6304  37.3392 0009254 261.6830  98.3305 14.33516507 66508
NOAA 7 [-]              
1 12553U 81059A   19042.91921863 -.00000007  00000-0  19806-4 0  9990
2 12553  99.0966  47.3193 0011239 347.0933  71.4191 14.17253723944767
NOAA 8 [-]              
1 13923U 83022A   19042.91713512  .00000008  00000-0  20311-4 0  9997
2 13923  98.5707  30.3569 0015049 183.4832 176.6248 14.28665032867989
NOAA 9 [P]              
1 15427U 84123A   19042.89637391  .00000022  00000-0  33928-4 0  9992
2 15427  98.8776 352.1516 0015556  39.0679  29.2116 14.16059302763722
NOAA 10 [-]             
1 16969U 86073A   19042.91453747 -.00000001  00000-0  16746-4 0  9991
2 16969  98.4744  43.1353 0011181 301.5432 115.9865 14.28063263686480
NOAA 11 [-]             
1 19531U 88089A   19042.96110781 -.00000030  00000-0  54568-5 0  9998
2 19531  98.4662  83.7605 0012336  99.2116 261.0455 14.15236933568041
NOAA 12 [-]             
1 21263U 91032A   19042.90652354 -.00000014  00000-0  12146-4 0  9993
2 21263  98.5245  61.7687 0012850 317.4914  42.5271 14.25885692442640
NOAA 13 [-]             
1 22739U 93050A   19042.96429164 -.00000030  00000-0  59908-5 0  9997
2 22739  98.4853  72.4577 0008604 240.2369 119.7949 14.12723106314586
NOAA 14 [-]             
1 23455U 94089A   19042.92419632 -.00000044  00000-0 -10004-5 0  9991
2 23455  98.6150 108.8525 0008722 222.8439 137.2056 14.14126123244063
NOAA 15 [B]             
1 25338U 98030A   19042.96876821  .00000007  00000-0  21720-4 0  9997
2 25338  98.7574  64.3953 0009528 248.9753 111.0408 14.25894463 78933
NOAA 16 [-]             
1 26536U 00055A   19042.92303764 -.00000012  00000-0  16633-4 0  9999
2 26536  98.7899 117.2258 0011237  49.3382 310.8766 14.13222798244812
NOAA 17 [-]             
1 27453U 02032A   19042.88399892 -.00000009  00000-0  14518-4 0  9993
2 27453  98.5215 356.8642 0010763 228.4328 131.5929 14.25032029864874
NOAA 18 [B]             
1 28654U 05018A   19042.90376968  .00000059  00000-0  56870-4 0  9997
2 28654  99.1154  87.8601 0014559 170.8367 189.3072 14.12403484707524
NOAA 19 [+]             
1 33591U 09005A   19042.95052801  .00000057  00000-0  56055-4 0  9998
2 33591  99.1703  31.0707 0014287  17.8933 342.2738 14.12333766515751
SUOMI NPP [+]           
1 37849U 11061A   19042.90962012  .00000004  00000-0  22793-4 0  9996
2 37849  98.7252 342.8874 0000718 112.0591 288.5045 14.19556755377891
NOAA 20 [+]             
1 43013U 17073A   19042.86652277  .00000009  00000-0  25231-4 0  9994
2 43013  98.7508 342.9219 0000724  73.4001 286.7255 14.19538992 63913
